{
  "type": "FeatureCollection",
  "name": "ozark-highlands-ecoregion",
  "features": [
    {
      "type": "Feature",
      "properties": {
        "name": "Ozark Highlands",
        "epaCode": "39",
        "level": "III",
        "source": "EPA Level III Ecoregions (Omernik) — simplified placeholder",
        "note": "Simplified boundary for the spike. Replace with the authoritative EPA clip (see README)."
      },
      "geometry": {
        "type": "Polygon",
        "coordinates": [
          [
            [-94.1, 37.4],
            [-92.6, 37.55],
            [-90.9, 37.5],
            [-90.5, 37.0],
            [-90.7, 36.4],
            [-91.0, 36.0],
            [-91.8, 35.75],
            [-92.6, 35.7],
            [-93.4, 35.9],
            [-94.1, 36.3],
            [-94.35, 36.9],
            [-94.1, 37.4]
          ]
        ]
      }
    }
  ]
}
